start=new Date('2022-12-06T00:00:00.000Z').valueOf();
sats=[{"CLASSIFICATION_TYPE":"U","CENTER_NAME":"EARTH","TLE_LINE2":"2 53779  53.2182 215.7939 0002236  50.1187 310.0002 15.08837399 14065","RA_OF_ASC_NODE":"215.7939","ECCENTRICITY":"0.00022360","MEAN_MOTION_DOT":"0.00001907","MEAN_ELEMENT_THEORY":"SGP4","NORAD_CAT_ID":"53779","OBJECT_ID":"2022-111G","MEAN_MOTION":"15.08837399","BSTAR":"0.00013791000000","MEAN_MOTION_DDOT":"0.0000000000000","REF_FRAME":"TEME","PERIAPSIS":"538.206","OBJECT_NAME":"STARLINK-4706","PERIOD":"95.438","SEMIMAJOR_AXIS":"6917.888","ARG_OF_PERICENTER":"50.1187","MEAN_ANOMALY":"310.0002","FILE":"3682465","TIME_SYSTEM":"UTC","ELEMENT_SET_NO":"999","SITE":"AFETR","OBJECT_TYPE":"PAYLOAD","GP_ID":"219628787","RCS_SIZE":"LARGE","LAUNCH_DATE":"2022-09-11","EPOCH":"2022-12-05T19:31:22.862784","TLE_LINE1":"1 53779U 22111G   22339.81345906  .00001907  00000-0  13791-3 0  9994","REV_AT_EPOCH":"1406","COUNTRY_CODE":"US","INCLINATION":"53.2182","EPHEMERIS_TYPE":"0","DECAY_DATE":null,"APOAPSIS":"541.300"},{"DECAY_DATE":null,"EPHEMERIS_TYPE":"0","INCLINATION":"53.2164","APOAPSIS":"541.184","EPOCH":"2022-12-05T19:41:59.547840","TLE_LINE1":"1 53780U 22111H   22339.82082810  .00000083  00000-0  23340-4 0  9995","COUNTRY_CODE":"US","REV_AT_EPOCH":"1406","GP_ID":"219629395","OBJECT_TYPE":"PAYLOAD","LAUNCH_DATE":"2022-09-11","RCS_SIZE":"LARGE","FILE":"3682465","ELEMENT_SET_NO":"999","SITE":"AFETR","TIME_SYSTEM":"UTC","SEMIMAJOR_AXIS":"6917.886","MEAN_ANOMALY":"311.6942","ARG_OF_PERICENTER":"48.4228","BSTAR":"0.00002334000000","MEAN_MOTION":"15.08838131","OBJECT_ID":"2022-111H","PERIOD":"95.438","OBJECT_NAME":"STARLINK-4678","PERIAPSIS":"538.318","REF_FRAME":"TEME","MEAN_MOTION_DDOT":"0.0000000000000","ECCENTRICITY":"0.00020720","NORAD_CAT_ID":"53780","MEAN_ELEMENT_THEORY":"SGP4","MEAN_MOTION_DOT":"0.00000083","CENTER_NAME":"EARTH","CLASSIFICATION_TYPE":"U","RA_OF_ASC_NODE":"215.8355","TLE_LINE2":"2 53780  53.2164 215.8355 0002072  48.4228 311.6942 15.08838131 14069"},{"OBJECT_ID":"2022-111J","MEAN_MOTION":"15.08837917","BSTAR":"0.00010514000000","REF_FRAME":"TEME","MEAN_MOTION_DDOT":"0.0000000000000","OBJECT_NAME":"STARLINK-4462","PERIAPSIS":"538.297","PERIOD":"95.438","SEMIMAJOR_AXIS":"6917.887","ARG_OF_PERICENTER":"47.6110","MEAN_ANOMALY":"312.5060","CLASSIFICATION_TYPE":"U","CENTER_NAME":"EARTH","TLE_LINE2":"2 53781  53.2164 215.7218 0002103  47.6110 312.5060 15.08837917 14065","RA_OF_ASC_NODE":"215.7218","ECCENTRICITY":"0.00021030","MEAN_ELEMENT_THEORY":"SGP4","MEAN_MOTION_DOT":"0.00001385","NORAD_CAT_ID":"53781","EPOCH":"2022-12-05T19:15:27.730656","REV_AT_EPOCH":"1406","TLE_LINE1":"1 53781U 22111J   22339.80240429  .00001385  00000-0  10514-3 0  9990","COUNTRY_CODE":"US","INCLINATION":"53.2164","EPHEMERIS_TYPE":"0","DECAY_DATE":null,"APOAPSIS":"541.207","FILE":"3682465","TIME_SYSTEM":"UTC","SITE":"AFETR","ELEMENT_SET_NO":"999","OBJECT_TYPE":"PAYLOAD","GP_ID":"219630156","RCS_SIZE":"LARGE","LAUNCH_DATE":"2022-09-11"},{"TLE_LINE2":"2 53782  53.2175 215.7708 0002211  45.4665 314.6508 15.08861864 14061","RA_OF_ASC_NODE":"215.7708","CLASSIFICATION_TYPE":"U","CENTER_NAME":"EARTH","MEAN_MOTION_DOT":"-0.00002372","MEAN_ELEMENT_THEORY":"SGP4","NORAD_CAT_ID":"53782","ECCENTRICITY":"0.00022110","MEAN_MOTION_DDOT":"0.0000000000000","REF_FRAME":"TEME","OBJECT_NAME":"STARLINK-4679","PERIAPSIS":"538.149","PERIOD":"95.436","OBJECT_ID":"2022-111K","MEAN_MOTION":"15.08861864","BSTAR":"-0.00013087000000","ARG_OF_PERICENTER":"45.4665","MEAN_ANOMALY":"314.6508","SEMIMAJOR_AXIS":"6917.814","TIME_SYSTEM":"UTC","SITE":"AFETR","ELEMENT_SET_NO":"999","FILE":"3682465","RCS_SIZE":"LARGE","LAUNCH_DATE":"2022-09-11","OBJECT_TYPE":"PAYLOAD","GP_ID":"219629588","TLE_LINE1":"1 53782U 22111K   22339.80976896 -.00002372  00000-0 -13087-3 0  9992","COUNTRY_CODE":"US","REV_AT_EPOCH":"1406","EPOCH":"2022-12-05T19:26:04.038144","APOAPSIS":"541.208","EPHEMERIS_TYPE":"0","INCLINATION":"53.2175","DECAY_DATE":null},{"MEAN_ANOMALY":"333.1281","ARG_OF_PERICENTER":"49.3928","SEMIMAJOR_AXIS":"6917.817","PERIOD":"95.436","MEAN_MOTION_DDOT":"0.0000000000000","REF_FRAME":"TEME","PERIAPSIS":"538.357","OBJECT_NAME":"STARLINK-4536","MEAN_MOTION":"15.08860722","BSTAR":"-0.00131710000000","OBJECT_ID":"2022-111L","NORAD_CAT_ID":"53783","MEAN_MOTION_DOT":"-0.00021201","MEAN_ELEMENT_THEORY":"SGP4","ECCENTRICITY":"0.00019150","TLE_LINE2":"2 53783  53.2138 216.2508 0001915  49.3928 333.1281 15.08860722 13234","RA_OF_ASC_NODE":"216.2508","CLASSIFICATION_TYPE":"U","CENTER_NAME":"EARTH","APOAPSIS":"541.007","INCLINATION":"53.2138","EPHEMERIS_TYPE":"0","DECAY_DATE":null,"TLE_LINE1":"1 53783U 22111L   22339.66667824 -.00021201  00000-0 -13171-2 0  9990","REV_AT_EPOCH":"1323","COUNTRY_CODE":"US","EPOCH":"2022-12-05T16:00:00.999936","RCS_SIZE":"LARGE","LAUNCH_DATE":"2022-09-11","GP_ID":"219570093","OBJECT_TYPE":"PAYLOAD","SITE":"AFETR","ELEMENT_SET_NO":"999","TIME_SYSTEM":"UTC","FILE":"3682065"},{"APOAPSIS":"541.231","DECAY_DATE":null,"INCLINATION":"53.2171","EPHEMERIS_TYPE":"0","COUNTRY_CODE":"US","TLE_LINE1":"1 53784U 22111M   22339.80608792  .00002176  00000-0  15475-3 0  9994","REV_AT_EPOCH":"1406","EPOCH":"2022-12-05T19:20:45.996288","LAUNCH_DATE":"2022-09-11","RCS_SIZE":"LARGE","GP_ID":"219628985","OBJECT_TYPE":"PAYLOAD","ELEMENT_SET_NO":"999","SITE":"AFETR","TIME_SYSTEM":"UTC","FILE":"3682465","MEAN_ANOMALY":"309.5299","ARG_OF_PERICENTER":"50.5886","SEMIMAJOR_AXIS":"6917.854","PERIOD":"95.437","OBJECT_NAME":"STARLINK-4687","PERIAPSIS":"538.208","REF_FRAME":"TEME","MEAN_MOTION_DDOT":"0.0000000000000","BSTAR":"0.00015475000000","MEAN_MOTION":"15.08848532","OBJECT_ID":"2022-111M","NORAD_CAT_ID":"53784","MEAN_MOTION_DOT":"0.00002176","MEAN_ELEMENT_THEORY":"SGP4","ECCENTRICITY":"0.00021850","RA_OF_ASC_NODE":"215.7509","TLE_LINE2":"2 53784  53.2171 215.7509 0002185  50.5886 309.5299 15.08848532 14067","CENTER_NAME":"EARTH","CLASSIFICATION_TYPE":"U"},{"REV_AT_EPOCH":"130","TLE_LINE1":"1 53786U 22111P   22339.91668981 -.00438613  00000-0 -11707-1 0  9997","COUNTRY_CODE":"US","EPOCH":"2022-12-05T22:00:01.999584","APOAPSIS":"449.280","DECAY_DATE":null,"INCLINATION":"53.2174","EPHEMERIS_TYPE":"0","ELEMENT_SET_NO":"999","SITE":"AFETR","TIME_SYSTEM":"UTC","FILE":"3682465","LAUNCH_DATE":"2022-09-11","RCS_SIZE":"LARGE","GP_ID":"219629781","OBJECT_TYPE":"PAYLOAD","PERIOD":"93.547","PERIAPSIS":"446.865","OBJECT_NAME":"STARLINK-4631","MEAN_MOTION_DDOT":"0.0000000000000","REF_FRAME":"TEME","BSTAR":"-0.01170700000000","MEAN_MOTION":"15.39336409","OBJECT_ID":"2022-111P","MEAN_ANOMALY":"14.4262","ARG_OF_PERICENTER":"37.6921","SEMIMAJOR_AXIS":"6826.207","RA_OF_ASC_NODE":"208.5518","TLE_LINE2":"2 53786  53.2174 208.5518 0001769  37.6921  14.4262 15.39336409  1309","CENTER_NAME":"EARTH","CLASSIFICATION_TYPE":"U","NORAD_CAT_ID":"53786","MEAN_ELEMENT_THEORY":"SGP4","MEAN_MOTION_DOT":"-0.00438613","ECCENTRICITY":"0.00017690"},{"CENTER_NAME":"EARTH","CLASSIFICATION_TYPE":"U","RA_OF_ASC_NODE":"216.1706","TLE_LINE2":"2 53787  53.2155 216.1706 0001846  50.8974  11.6874 15.08862474 13239","ECCENTRICITY":"0.00018460","NORAD_CAT_ID":"53787","MEAN_MOTION_DOT":"-0.00024732","MEAN_ELEMENT_THEORY":"SGP4","BSTAR":"-0.00154020000000","MEAN_MOTION":"15.08862474","OBJECT_ID":"2022-111Q","PERIOD":"95.436","PERIAPSIS":"538.400","OBJECT_NAME":"STARLINK-4743","MEAN_MOTION_DDOT":"0.0000000000000","REF_FRAME":"TEME","SEMIMAJOR_AXIS":"6917.812","MEAN_ANOMALY":"11.6874","ARG_OF_PERICENTER":"50.8974","FILE":"3682065","ELEMENT_SET_NO":"999","SITE":"AFETR","TIME_SYSTEM":"UTC","GP_ID":"219570424","OBJECT_TYPE":"PAYLOAD","LAUNCH_DATE":"2022-09-11","RCS_SIZE":"LARGE","EPOCH":"2022-12-05T16:00:00.999936","TLE_LINE1":"1 53787U 22111Q   22339.66667824 -.00024732  00000-0 -15402-2 0  9995","REV_AT_EPOCH":"1323","COUNTRY_CODE":"US","DECAY_DATE":null,"EPHEMERIS_TYPE":"0","INCLINATION":"53.2155","APOAPSIS":"540.954"},{"MEAN_ELEMENT_THEORY":"SGP4","MEAN_MOTION_DOT":"0.00026667","NORAD_CAT_ID":"53789","ECCENTRICITY":"0.00020110","RA_OF_ASC_NODE":"216.1042","TLE_LINE2":"2 53789  53.2135 216.1042 0002011  51.6979  45.7190 15.08845259  1307","CENTER_NAME":"EARTH","CLASSIFICATION_TYPE":"U","ARG_OF_PERICENTER":"51.6979","MEAN_ANOMALY":"45.7190","SEMIMAJOR_AXIS":"6917.864","PERIAPSIS":"538.338","OBJECT_NAME":"STARLINK-4666","MEAN_MOTION_DDOT":"0.0000000000000","REF_FRAME":"TEME","PERIOD":"95.437","OBJECT_ID":"2022-111S","BSTAR":"0.00168700000000","MEAN_MOTION":"15.08845259","LAUNCH_DATE":"2022-09-11","RCS_SIZE":"LARGE","OBJECT_TYPE":"PAYLOAD","GP_ID":"219628788","TIME_SYSTEM":"UTC","SITE":"AFETR","ELEMENT_SET_NO":"999","FILE":"3682465","APOAPSIS":"541.120","DECAY_DATE":null,"INCLINATION":"53.2135","EPHEMERIS_TYPE":"0","TLE_LINE1":"1 53789U 22111S   22339.66667824  .00026667  00000-0  16870-2 0  9994","COUNTRY_CODE":"US","REV_AT_EPOCH":"130","EPOCH":"2022-12-05T16:00:00.999936"},{"ECCENTRICITY":"0.00022160","MEAN_ELEMENT_THEORY":"SGP4","MEAN_MOTION_DOT":"-0.00001029","NORAD_CAT_ID":"53790","CENTER_NAME":"EARTH","CLASSIFICATION_TYPE":"U","RA_OF_ASC_NODE":"216.2496","TLE_LINE2":"2 53790  53.2153 216.2496 0002216  56.6618 303.4586 15.08845381 14049","SEMIMAJOR_AXIS":"6917.864","ARG_OF_PERICENTER":"56.6618","MEAN_ANOMALY":"303.4586","OBJECT_ID":"2022-111T","BSTAR":"-0.00004652100000","MEAN_MOTION":"15.08845381","PERIAPSIS":"538.196","OBJECT_NAME":"STARLINK-4734","MEAN_MOTION_DDOT":"0.0000000000000","REF_FRAME":"TEME","PERIOD":"95.437","OBJECT_TYPE":"PAYLOAD","GP_ID":"219629396","LAUNCH_DATE":"2022-09-11","RCS_SIZE":"LARGE","FILE":"3682465","TIME_SYSTEM":"UTC","ELEMENT_SET_NO":"999","SITE":"AFETR","DECAY_DATE":null,"EPHEMERIS_TYPE":"0","INCLINATION":"53.2153","APOAPSIS":"541.262","EPOCH":"2022-12-05T15:48:46.255680","TLE_LINE1":"1 53790U 22111T   22339.65886870 -.00001029  00000-0 -46521-4 0  9994","COUNTRY_CODE":"US","REV_AT_EPOCH":"1404"}];
